     2.100          NAVIGATION                              RINEX VERSION / TYPE
fic2rin                                 06/15/2014 00:21:31 PGM / RUN BY / DATE
                                                            END OF HEADER
12 14  6 14  6  0  0.0  .211430713534D-03  .250111042988D-11  .000000000000D+00
     .300000000000D+02 -.102812500000D+03  .405338312539D-08 -.251514915902D+01
    -.523030757904D-05  .514119490981D-02  .119209289551D-05  .515360754585D+04
     .540000000000D+06 -.428408384323D-07  .227556465868D+01  .260770320892D-07
     .987606174744D+00  .371093750000D+03  .460131851687D+00 -.817105464294D-08
    -.187150652719D-09  .100000000000D+01  .179600000000D+04  .000000000000D+00
     .240000000000D+01  .000000000000D+00 -.121071934700D-07  .300000000000D+02
     .532806000000D+06  .400000000000D+01
13 14  6 14  6  0  0.0 -.102859921753D-04 -.386535248253D-11  .000000000000D+00
     .490000000000D+02  .722187500000D+02  .378372903607D-08  .263059325020D+00
     .360235571861D-05  .535422132816D-02  .121109187603D-04  .515358415794D+04
     .540000000000D+06  .204890966415D-07  .247652553529D+00 -.726431608200D-07
     .977859437691D+00  .157468750000D+03  .228529981088D+01 -.761567436626D-08
    -.424303388225D-09  .100000000000D+01  .179600000000D+04  .000000000000D+00
     .240000000000D+01  .000000000000D+00 -.111758708954D-07  .490000000000D+02
     .532806000000D+06  .400000000000D+01
14 14  6 14  6  0  0.0  .163780525327D-03 -.352429196937D-11  .000000000000D+00
     .300000000000D+02  .675312500000D+02  .399266631058D-08  .632410389243D+00
     .366754829884D-05  .760609493591D-02  .130925327539D-04  .515368061638D+04
     .540000000000D+06 -.152736902237D-06  .215689067698D+00  .149011611938D-07
     .970412843807D+00  .134843750000D+03 -.199965539040D+01 -.777210945384D-08
    -.551094383865D-09  .100000000000D+01  .179600000000D+04  .000000000000D+00
     .240000000000D+01  .000000000000D+00 -.931322574615D-08  .300000000000D+02
     .532806000000D+06  .400000000000D+01
15 14  6 14  6  0  0.0 -.185190699995D-03 -.216004991671D-11  .000000000000D+00
     .870000000000D+02  .531875000000D+02  .483198698594D-08  .199208202736D-01
     .263936817646D-05  .629591615871D-02  .123772770166D-04  .515371198082D+04
     .540000000000D+06  .596046447754D-07  .103180144633D+00  .111758708954D-07
     .936969702652D+00  .125187500000D+03  .271806845138D+00 -.812069540242D-08
    -.663241912402D-09  .100000000000D+01  .179600000000D+04  .000000000000D+00
     .240000000000D+01  .000000000000D+00 -.102445483208D-07  .870000000000D+02
     .532806000000D+06  .400000000000D+01
16 14  6 14  6  0  0.0 -.213225837797D-03  .204636307899D-11  .000000000000D+00
     .620000000000D+02 -.884375000000D+02  .401588156330D-08  .164372248583D+01
    -.454299151897D-05  .772391830105D-02  .164657831192D-05  .515360563660D+04
     .540000000000D+06 -.260770320892D-07  .229412905253D+01  .353902578354D-07
     .988219023312D+00  .364718750000D+03  .221946114615D+00 -.813819613139D-08
    -.303226916332D-09  .100000000000D+01  .179600000000D+04  .000000000000D+00
     .240000000000D+01  .000000000000D+00 -.102445483208D-07  .620000000000D+02
     .532806000000D+06  .400000000000D+01
17 14  6 14  6  0  0.0 -.101160723716D-03 -.295585778076D-11  .000000000000D+00
     .200000000000D+02 -.107875000000D+03  .399623788792D-08  .720440788313D+00
    -.579841434956D-05  .931711948942D-02  .121146440506D-04  .515361409378D+04
     .540000000000D+06 -.158324837685D-06 -.295768144205D+01  .186264514923D-07
     .969283466661D+00  .150343750000D+03 -.209973458466D+01 -.782175437889D-08
     .132862677121D-09  .100000000000D+01  .179600000000D+04  .000000000000D+00
     .240000000000D+01  .000000000000D+00 -.102445483208D-07  .200000000000D+02
     .532806000000D+06  .400000000000D+01
19 14  6 14  6  0  0.0 -.462592579424D-03 -.216004991671D-11  .000000000000D+00
     .910000000000D+02 -.897187500000D+02  .407338395851D-08 -.777254578287D-01
    -.459887087345D-05  .104240460787D-01  .111609697342D-04  .515363178062D+04
     .540000000000D+06  .124797224998D-06 -.290695397352D+01  .894069671631D-07
     .966391479501D+00  .169687500000D+03  .444536492501D+00 -.789604318761D-08
     .252510518077D-09  .100000000000D+01  .179600000000D+04  .000000000000D+00
     .240000000000D+01  .000000000000D+00 -.149011611938D-07  .910000000000D+02
     .532806000000D+06  .400000000000D+01
20 14  6 14  6  0  0.0  .199811533093D-03  .397903932026D-11  .000000000000D+00
     .480000000000D+02 -.220625000000D+02  .587310178112D-08  .280828730275D+01
    -.117719173431D-05  .575847877190D-02  .490620732307D-05  .515377111244D+04
     .540000000000D+06  .409781932831D-07 -.968934777211D+00 -.186264514923D-06
     .926426356965D+00  .263062500000D+03  .133022449134D+01 -.860821570959D-08
    -.393944980818D-09  .100000000000D+01  .179600000000D+04  .000000000000D+00
     .240000000000D+01  .000000000000D+00 -.838190317154D-08  .480000000000D+02
     .532806000000D+06  .400000000000D+01
21 14  6 14  6  0  0.0 -.366892665625D-03 -.216004991671D-11  .000000000000D+00
     .630000000000D+02  .263437500000D+02  .533807949529D-08 -.303201835151D+01
     .108592212200D-05  .215272102505D-01  .836886465549D-05  .515374069595D+04
     .540000000000D+06  .318512320518D-06 -.196138447768D+01 -.344589352608D-06
     .932158642000D+00  .200593750000D+03 -.201759909299D+01 -.800390482333D-08
     .758603027432D-09  .100000000000D+01  .179600000000D+04  .000000000000D+00
     .240000000000D+01  .000000000000D+00 -.111758708954D-07  .630000000000D+02
     .532806000000D+06  .400000000000D+01
22 14  6 14  6  0  0.0  .242060516030D-03  .306954461848D-11  .000000000000D+00
     .101000000000D+03 -.235625000000D+02  .602775108003D-08  .173467280502D+01
    -.130012631416D-05  .730353989638D-02  .531226396561D-05  .515371573830D+04
     .540000000000D+06 -.167638063431D-06 -.914013972511D+00 -.130385160446D-06
     .923232601989D+00  .260406250000D+03 -.205404251674D+01 -.871929176493D-08
    -.367158150754D-09  .100000000000D+01  .179600000000D+04  .000000000000D+00
     .340000000000D+01  .000000000000D+00 -.172294676304D-07  .101000000000D+03
     .532806000000D+06  .400000000000D+01
23 14  6 14  6  0  0.0 -.285585410893D-04 -.306954461848D-11  .000000000000D+00
     .660000000000D+02  .542500000000D+02  .443304179684D-08 -.429772888554D+00
     .265985727310D-05  .947878242005D-02  .114273279905D-04  .515378200531D+04
     .540000000000D+06  .135973095894D-06  .150086299971D+00  .137835741043D-06
     .952060024482D+00  .155062500000D+03 -.277554622622D+01 -.797711799327D-08
    -.541451125041D-09  .100000000000D+01  .179600000000D+04  .000000000000D+00
     .240000000000D+01  .000000000000D+00 -.200234353542D-07  .660000000000D+02
     .532806000000D+06  .400000000000D+01
24 14  6 14  6  0  0.0 -.301101244986D-04 -.682121026330D-12  .000000000000D+00
     .460000000000D+02  .154937500000D+03  .453697469749D-08 -.125093659019D+01
     .803731381893D-05  .209042034112D-02  .456348061562D-05  .515373151207D+04
     .540000000000D+06  .558793544769D-07  .117678740676D+01 -.135973095894D-06
     .956614648760D+00  .292125000000D+03  .349171768269D+00 -.830927468607D-08
     .251439044874D-09  .100000000000D+01  .179600000000D+04  .000000000000D+00
     .240000000000D+01  .000000000000D+00  .279396772385D-08  .460000000000D+02
     .532806000000D+06  .400000000000D+01
25 14  6 14  6  0  0.0  .248113647103D-04  .227373675443D-12  .000000000000D+00
     .460000000000D+02 -.840312500000D+02  .428124975981D-08  .300265544102D+01
    -.434555113316D-05  .366021902300D-02  .640749931335D-06  .515359974098D+04
     .540000000000D+06  .372529029846D-08  .223292250138D+01  .465661287308D-07
     .976280327343D+00  .375656250000D+03  .702659339439D+00 -.834499045949D-08
    -.168935608275D-09  .100000000000D+01  .179600000000D+04  .000000000000D+00
     .240000000000D+01  .000000000000D+00  .512227416039D-08  .460000000000D+02
     .532806000000D+06  .400000000000D+01
26 14  6 14  6  0  0.0  .472483225167D-04 -.121644916362D-10  .000000000000D+00
     .610000000000D+02  .905312500000D+02  .400195241167D-08 -.529060563668D+00
     .482052564621D-05  .212900165934D-01  .126324594021D-04  .515370344925D+04
     .540000000000D+06 -.195577740669D-06  .238850776705D+00  .175088644028D-06
     .975241203465D+00  .146656250000D+03  .128577885888D+01 -.803319175754D-08
    -.441804117201D-09  .100000000000D+01  .179600000000D+04  .000000000000D+00
     .240000000000D+01  .000000000000D+00 -.605359673500D-08  .610000000000D+02
     .532806000000D+06  .400000000000D+01
27 14  6 14  6  0  0.0 -.102296471596D-04  .284217094304D-11  .000000000000D+00
     .890000000000D+02 -.112750000000D+03  .408588447920D-08  .715157205122D+00
    -.589340925217D-05  .131095352117D-02  .110529363155D-04  .515368247604D+04
     .540000000000D+06  .186264514923D-07 -.300330511708D+01  .204890966415D-07
     .964043029313D+00  .170500000000D+03  .197664610576D+00 -.776853787650D-08
     .157506560780D-09  .100000000000D+01  .179600000000D+04  .000000000000D+00
     .240000000000D+01  .000000000000D+00  .186264514923D-08  .890000000000D+02
     .532806000000D+06  .400000000000D+01
28 14  6 14  6  0  0.0  .362161081284D-03  .272848410532D-11  .000000000000D+00
     .720000000000D+02 -.101437500000D+03  .405516891406D-08  .154547373564D+01
    -.558607280254D-05  .191434326116D-01  .202283263206D-05  .515367288780D+04
     .540000000000D+06 -.167638063431D-06  .229988650268D+01 -.502914190292D-06
     .986752633728D+00  .355687500000D+03 -.171467203335D+01 -.822319967213D-08
    -.207865801302D-09  .100000000000D+01  .179600000000D+04  .000000000000D+00
     .240000000000D+01  .000000000000D+00 -.107102096081D-07  .720000000000D+02
     .532806000000D+06  .400000000000D+01
